GPS BIIR-2  (PRN 13)    
1 24876U 97035A   24112.44021962  .00000083  00000+0  00000+0 0  9998
2 24876  55.6518 129.3493 0077493  51.8654 308.8908  2.00565641196178
GPS BIIR-4  (PRN 20)    
1 26360U 00025A   24112.82950045 -.00000070  00000+0  00000+0 0  9993
2 26360  54.6244  51.1785 0037832 214.4230 154.1563  2.00552506175508
GPS BIIR-5  (PRN 22)    
1 26407U 00040A   24112.77811000 -.00000032  00000+0  00000+0 0  9991
2 26407  55.0926 246.4278 0145446 294.4811 238.5612  2.00559484174178
GPS BIIR-8  (PRN 16)    
1 27663U 03005A   24112.91424257 -.00000030  00000+0  00000+0 0  9998
2 27663  55.1321 246.2334 0137979  47.3120   0.0500  2.00552827155546
GPS BIIR-9  (PRN 21)    
1 27704U 03010A   24112.80327372 -.00000091  00000+0  00000+0 0  9995
2 27704  55.1049 356.0662 0253752 325.9083 219.4950  2.00560955154336
GPS BIIR-11 (PRN 19)    
1 28190U 04009A   24111.36216889 -.00000042  00000+0  00000+0 0  9990
2 28190  55.5037 307.3448 0096021 145.2595  20.7296  2.00560847147140
GPS BIIR-13 (PRN 02)    
1 28474U 04045A   24112.56424439 -.00000092  00000+0  00000+0 0  9995
2 28474  55.4333 356.4756 0162608 290.9563  68.2949  2.00560529142647
GPS BIIRM-1 (PRN 17)    
1 28874U 05038A   24112.33080036 -.00000041  00000+0  00000+0 0  9992
2 28874  55.5498 304.7655 0136234 283.9324 246.0197  2.00559517136055
GPS BIIRM-2 (PRN 31)    
1 29486U 06042A   24112.90636990  .00000039  00000+0  00000+0 0  9993
2 29486  54.6757 182.5166 0103444  37.3733  88.4360  2.00559161128623
GPS BIIRM-3 (PRN 12)    
1 29601U 06052A   24112.66155381 -.00000032  00000+0  00000+0 0  9990
2 29601  55.1603 245.2178 0086585  82.2275 278.7188  2.00564293127638
GPS BIIRM-4 (PRN 15)    
1 32260U 07047A   24112.46503356  .00000061  00000+0  00000+0 0  9998
2 32260  53.5778 112.5981 0152967  74.3639 287.3499  2.00567349121034
GPS BIIRM-5 (PRN 29)    
1 32384U 07062A   24112.79094933 -.00000041  00000+0  00000+0 0  9993
2 32384  55.6869 305.6019 0027010 147.7072 214.8536  2.00571599119742
GPS BIIRM-6 (PRN 07)    
1 32711U 08012A   24112.38480826  .00000034  00000+0  00000+0 0  9999
2 32711  54.4475 181.3142 0185593 238.2504 119.9977  2.00566515117978
GPS BIIRM-8 (PRN 05)    
1 35752U 09043A   24112.87602073 -.00000054  00000+0  00000+0 0  9999
2 35752  55.6295  58.5223 0055602  70.1046 300.2326  2.00572712107591
GPS BIIF-1  (PRN 25)    
1 36585U 10022A   24113.11373635 -.00000027  00000+0  00000+0 0  9990
2 36585  54.4677 240.2632 0115823  61.7957 242.7327  2.00574015101829
GPS BIIF-3  (PRN 24)    
1 38833U 12053A   24113.05843864  .00000049  00000+0  00000+0 0  9996
2 38833  53.5120 175.7625 0150078  55.3387 306.1486  2.00557808 84564
GPS BIIF-4  (PRN 27)    
1 39166U 13023A   24112.92215431 -.00000040  00000+0  00000+0 0  9994
2 39166  55.1623 300.8456 0123960  44.2015 316.7886  2.00563221 80101
GPS BIIF-5  (PRN 30)    
1 39533U 14008A   24112.42612982  .00000033  00000+0  00000+0 0  9994
2 39533  53.5961 181.3782 0071934 218.9983 140.5508  2.00565149 73902
GPS BIIF-6  (PRN 06)    
1 39741U 14026A   24112.70315179 -.00000093  00000+0  00000+0 0  9991
2 39741  56.7104   2.0566 0032199 316.5905  43.1998  2.00572584 72760
GPS BIIF-7  (PRN 09)    
1 40105U 14045A   24112.29690167  .00000074  00000+0  00000+0 0  9993
2 40105  54.9059 119.8800 0024620 116.7068 243.5887  2.00562380 70295
GPS BIIF-8  (PRN 03)    
1 40294U 14068A   24112.66548013 -.00000047  00000+0  00000+0 0  9991
2 40294  56.3759  61.4454 0051553  60.0692 300.4153  2.00556153 69437
GPS BIIF-9  (PRN 26)    
1 40534U 15013A   24112.80015179 -.00000030  00000+0  00000+0 0  9999
2 40534  53.3657 236.7341 0087379  29.7724 330.6933  2.00568930 66055
GPS BIIF-10 (PRN 08)    
1 40730U 15033A   24112.46345744 -.00000041  00000+0  00000+0 0  9997
2 40730  54.6472 299.3655 0093921  18.9900 341.3616  2.00570007 64212
GPS BIIF-11 (PRN 10)    
1 41019U 15062A   24112.52013623 -.00000048  00000+0  00000+0 0  9992
2 41019  56.3569  61.3038 0094775 225.4367 133.7636  2.00562547 62056
GPS BIIF-12 (PRN 32)    
1 41328U 16007A   24112.60147065  .00000075  00000+0  00000+0 0  9991
2 41328  55.1030 120.6977 0079343 238.2686 120.9986  2.00564727 60067
GPS BIII-1  (PRN 04)    
1 43873U 18109A   24112.48852840  .00000078  00000+0  00000+0 0  9996
2 43873  55.2746 123.2670 0028596 195.7963 336.0281  2.00553563 39292
GPS BIII-2  (PRN 18)    
1 44506U 19056A   24112.80931212 -.00000094  00000+0  00000+0 0  9998
2 44506  55.8398   2.3149 0040063 188.6817 113.3101  2.00571340 34290
GPS BIII-3  (PRN 23)    
1 45854U 20041A   24113.19628490 -.00000051  00000+0  00000+0 0  9998
2 45854  56.0796  59.6266 0041218 193.7907 325.3196  2.00559613 28265
GPS BIII-4  (PRN 14)    
1 46826U 20078A   24112.63069550 -.00000033  00000+0  00000+0 0  9992
2 46826  54.2053 242.7049 0043659 194.9155 253.6389  2.00560673 25738
GPS BIII-5  (PRN 11)    
1 48859U 21054A   24112.49915491 -.00000098  00000+0  00000+0 0  9994
2 48859  55.3636   4.0048 0013791 222.7614 316.1118  2.00561739 20977
GPS BIII-6  (PRN 28)    
1 55268U 23009A   24111.21074744  .00000021  00000+0  00000+0 0  9999
2 55268  55.0835 179.4402 0002049 110.4542 258.9080  2.00568186  9448
